STARLINK-3114
1 29426C 21104U   21325.19099272 -.00818679  00000-0 -27586-2 0  3259
2 29426  53.2175  95.6703 0032129  63.6079 162.1675 15.89195362    16
